NORAD_CAT_ID,OBJECT_NAME,OBJECT_TYPE,EPOCH,MEAN_MOTION,ECCENTRICITY,INCLINATION,RA_OF_ASC_NODE,ARG_OF_PERICENTER,MEAN_ANOMALY,BSTAR,MEAN_MOTION_DOT,MEAN_MOTION_DDOT,TLE_LINE0,TLE_LINE1,TLE_LINE2,SEMIMAJOR_AXIS,PERIOD,APOGEE,PERIGEE,DECAYED
52374.0,STARLINK-3762,PAYLOAD,2022-10-25 09:58:37,15.08830779,0.0002461999999999,53.2181,316.5128,31.3465,328.7674,-6.3528e-05,-1.299e-05,0.0,0 STARLINK-3762,1 52374U 22045AV  22298.41570684 -.00001299  00000-0 -63528-4 0  9993,2 52374  53.2181 316.5128 0002462  31.3465 328.7674 15.08830779 30047,6917.909000000002,95.438,541.477,538.07,0.0
52374.0,STARLINK-3762,PAYLOAD,2022-10-25 11:34:00,15.08831646,0.0002471,53.2184,316.2158,31.6549,328.4591,-5.141100000000001e-05,-1.106e-05,0.0,0 STARLINK-3762,1 52374U 22045AV  22298.48194643 -.00001106  00000-0 -51411-4 0  9992,2 52374  53.2184 316.2158 0002471  31.6549 328.4591 15.08831646 30056,6917.906,95.438,541.48,538.062,0.0
52374.0,STARLINK-3762,PAYLOAD,2022-10-25 17:55:32,15.08836426,0.0002481,53.2179,315.0262,31.7538,328.3603,-4.9218e-05,-1.072e-05,0.0,0 STARLINK-3762,1 52374U 22045AV  22298.74690449 -.00001072  00000-0 -49218-4 0  9990,2 52374  53.2179 315.0262 0002481  31.7538 328.3603 15.08836426 30091,6917.891,95.438,541.4730000000002,538.04,0.0
52374.0,STARLINK-3762,PAYLOAD,2022-10-26 08:14:00,15.08836932,0.0002407,53.2179,312.3499,30.6757,329.4375,0.0001124,1.501e-05,0.0,0 STARLINK-3762,1 52374U 22045AV  22299.34306371  .00001501  00000-0  11240-3 0  9993,2 52374  53.2179 312.3499 0002407  30.6757 329.4375 15.08836932 30182,6917.89,95.438,541.42,538.09,0.0
52374.0,STARLINK-3762,PAYLOAD,2022-10-27 08:04:48,15.08837277,0.0002515,53.2177,307.8892,34.1324,325.9829,0.00015303,2.148e-05,0.0,0 STARLINK-3762,1 52374U 22045AV  22300.33666968  .00002148  00000-0  15303-3 0  9998,2 52374  53.2177 307.8892 0002515  34.1324 325.9829 15.08837277 30330,6917.889,95.438,541.494,538.014,0.0
52374.0,STARLINK-3762,PAYLOAD,2022-10-27 17:37:06,15.08847539,0.0002586,53.2179,306.105,34.6704,325.4457,0.00020833,3.029e-05,0.0,0 STARLINK-3762,1 52374U 22045AV  22300.73410252  .00003029  00000-0  20833-3 0  9998,2 52374  53.2179 306.1050 0002586  34.6704 325.4457 15.08847539 30395,6917.857,95.437,541.511,537.933,0.0
52374.0,STARLINK-3762,PAYLOAD,2022-10-28 07:55:34,15.08849268,0.0002384,53.2176,303.4281,34.5409,325.5738,0.00010228,1.34e-05,0.0,0 STARLINK-3762,1 52374U 22045AV  22301.33026010  .00001340  00000-0  10228-3 0  9991,2 52374  53.2176 303.4281 0002384  34.5409 325.5738 15.08849268 30489,6917.852,95.437,541.366,538.068,0.0
52374.0,STARLINK-3762,PAYLOAD,2022-10-28 17:27:53,15.08850426,0.0002461999999999,53.2173,301.6435,33.7621,326.3528,8.5034e-05,1.066e-05,0.0,0 STARLINK-3762,1 52374U 22045AV  22301.72769765  .00001066  00000-0  85034-4 0  9998,2 52374  53.2173 301.6435 0002462  33.7621 326.3528 15.08850426 30542,6917.849,95.437,541.4169999999998,538.01,0.0
52374.0,STARLINK-3762,PAYLOAD,2022-10-29 04:35:34,15.08844001,0.0002479,53.2183,299.5628,33.5945,326.5204,0.00022845,3.35e-05,0.0,0 STARLINK-3762,1 52374U 22045AV  22302.19137635  .00003350  00000-0  22845-3 0  9993,2 52374  53.2183 299.5628 0002479  33.5945 326.5204 15.08844001 30610,6917.868,95.437,541.448,538.018,0.0
52374.0,STARLINK-3762,PAYLOAD,2022-10-29 09:21:44,15.08841336,0.0002433,53.2183,298.671,30.5866,329.5267,2.529300000000001e-05,1.14e-06,0.0,0 STARLINK-3762,1 52374U 22045AV  22302.39010170  .00000114  00000-0  25293-4 0  9995,2 52374  53.2183 298.6710 0002433  30.5866 329.5267 15.08841336 30644,6917.876,95.437,541.424,538.058,0.0
52374.0,STARLINK-3762,PAYLOAD,2022-10-29 17:18:39,15.08846453,0.0002411999999999,53.2185,297.1858,34.3715,325.7433,6.31e-05,7.16e-06,0.0,0 STARLINK-3762,1 52374U 22045AV  22302.72129608  .00000716  00000-0  63100-4 0  9996,2 52374  53.2185 297.1858 0002412  34.3715 325.7433 15.08846453 30698,6917.861,95.437,541.394,538.057,0.0
52374.0,STARLINK-3762,PAYLOAD,2022-10-30 06:01:44,15.08854783,0.0002646,53.2173,294.8065,31.675,328.4401,0.0002329,3.422e-05,0.0,0 STARLINK-3762,1 52374U 22045AV  22303.25120881  .00003422  00000-0  23290-3 0  9991,2 52374  53.2173 294.8065 0002646  31.6750 328.4401 15.08854783 30776,6917.835,95.437,541.531,537.87,0.0
52374.0,STARLINK-3762,PAYLOAD,2022-10-30 17:09:26,15.08858423,0.0002648,53.217,292.7251,31.2114,328.9035,0.00023863,3.513e-05,0.0,0 STARLINK-3762,1 52374U 22045AV  22303.71488440  .00003513  00000-0  23863-3 0  9997,2 52374  53.2170 292.7251 0002648  31.2114 328.9035 15.08858423 30840,6917.824000000001,95.436,541.521,537.857,0.0
52374.0,STARLINK-3762,PAYLOAD,2022-10-31 07:27:56,15.08831881,0.0002479,53.2185,290.0483,32.8091,327.3054,-7.9953e-05,-1.56e-05,0.0,0 STARLINK-3762,1 52374U 22045AV  22304.31106537 -.00001560  00000-0 -79953-4 0  9992,2 52374  53.2185 290.0483 0002479  32.8091 327.3054 15.08831881 30930,6917.905,95.438,541.485,538.055,0.0
52374.0,STARLINK-3762,PAYLOAD,2022-11-01 02:32:33,15.08840211,0.0002577,53.2184,286.4805,34.4409,325.675,-8.4083e-06,-4.22e-06,0.0,0 STARLINK-3762,1 52374U 22045AV  22305.10594410 -.00000422  00000-0 -84083-5 0  9998,2 52374  53.2184 286.4805 0002577  34.4409 325.6750 15.08840211 31051,6917.88,95.438,541.5269999999998,537.962,0.0
52374.0,STARLINK-3762,PAYLOAD,2022-11-01 08:54:05,15.08845006,0.0002541,53.2173,285.2902,34.9475,325.1684,0.00013423,1.849e-05,0.0,0 STARLINK-3762,1 52374U 22045AV  22305.37090077  .00001849  00000-0  13423-3 0  9997,2 52374  53.2173 285.2902 0002541  34.9475 325.1684 15.08845006 31095,6917.865,95.437,541.488,537.972,0.0
52374.0,STARLINK-3762,PAYLOAD,2022-11-01 15:15:38,15.08838925,0.0002576,53.2176,284.0998,36.4193,323.6974,0.00015507,2.18e-05,0.0,0 STARLINK-3762,1 52374U 22045AV  22305.63586537  .00002180  00000-0  15507-3 0  9991,2 52374  53.2176 284.0998 0002576  36.4193 323.6974 15.08838925 31134,6917.884,95.438,541.531,537.967,0.0
52374.0,STARLINK-3762,PAYLOAD,2022-11-02 08:44:53,15.08839938,0.0002674,53.2175,280.8307,29.6243,330.49,0.0002318,3.403e-05,0.0,0 STARLINK-3762,1 52374U 22045AV  22306.36450905  .00003403  00000-0  23180-3 0  9996,2 52374  53.2175 280.8307 0002674  29.6243 330.4900 15.08839938 31242,6917.880999999999,95.438,541.595,537.896,0.0
52374.0,STARLINK-3762,PAYLOAD,2022-11-03 07:00:17,15.08843819,0.0002386,53.217,276.6671,37.4613,322.6545,0.00016115,2.278e-05,0.0,0 STARLINK-3762,1 52374U 22045AV  22307.29186849  .00002278  00000-0  16115-3 0  9991,2 52374  53.2170 276.6671 0002386  37.4613 322.6545 15.08843819 31388,6917.869000000002,95.437,541.384,538.0830000000002,0.0
52374.0,STARLINK-3762,PAYLOAD,2022-11-03 21:18:45,15.08854181,0.0002307,53.2169,273.99,35.7724,324.3422,0.00036017,5.451e-05,0.0,0 STARLINK-3762,1 52374U 22045AV  22307.88802387  .00005451  00000-0  36017-3 0  9997,2 52374  53.2169 273.9900 0002307  35.7724 324.3422 15.08854181 31475,6917.837,95.437,541.298,538.106,0.0
52374.0,STARLINK-3762,PAYLOAD,2022-11-04 02:04:54,15.08863175,0.0002534,53.2164,273.0987,36.8352,323.2814,0.00080349,0.00012531,0.0,0 STARLINK-3762,1 52374U 22045AV  22308.08674312  .00012531  00000-0  80349-3 0  9999,2 52374  53.2164 273.0987 0002534  36.8352 323.2814 15.08863175 31507,6917.81,95.436,541.428,537.922,0.0
52374.0,STARLINK-3762,PAYLOAD,2022-11-04 06:51:03,15.08857963,0.0002727,53.2165,272.2077,33.904,326.2126,0.00043694,6.676e-05,0.0,0 STARLINK-3762,1 52374U 22045AV  22308.28546225  .00006676  00000-0  43694-3 0  9997,2 52374  53.2165 272.2077 0002727  33.9040 326.2126 15.08857963 31535,6917.825,95.436,541.577,537.804,0.0
52374.0,STARLINK-3762,PAYLOAD,2022-11-04 19:34:08,15.08851461,0.0002004,53.2177,269.8254,38.0374,322.0759,0.00016359,2.317e-05,0.0,0 STARLINK-3762,1 52374U 22045AV  22308.81537739  .00002317  00000-0  16359-3 0  9992,2 52374  53.2177 269.8254 0002004  38.0374 322.0759 15.08851461 31613,6917.845,95.437,541.097,538.3240000000002,0.0
52374.0,STARLINK-3762,PAYLOAD,2022-11-05 01:55:41,15.08839687,0.000234,53.2166,268.6377,32.5888,327.5248,-0.00015031,-2.68e-05,0.0,0 STARLINK-3762,1 52374U 22045AV  22309.08034158 -.00002680  00000-0 -15031-3 0  9990,2 52374  53.2166 268.6377 0002340  32.5888 327.5248 15.08839687 31659,6917.880999999999,95.438,541.365,538.128,0.0
52374.0,STARLINK-3762,PAYLOAD,2022-11-05 06:41:50,15.08844095,0.0002184,53.2164,267.7452,33.1675,326.9453,3.9153e-05,3.35e-06,0.0,0 STARLINK-3762,1 52374U 22045AV  22309.27905836  .00000335  00000-0  39153-4 0  9996,2 52374  53.2164 267.7452 0002184  33.1675 326.9453 15.08844095 31681,6917.868,95.437,541.244,538.222,0.0
52374.0,STARLINK-3762,PAYLOAD,2022-11-05 19:24:56,15.08843268,0.0002433,53.217,265.3675,32.2917,327.8224,2.6012e-06,-2.47e-06,0.0,0 STARLINK-3762,1 52374U 22045AV  22309.80898149 -.00000247  00000-0  26012-5 0  9997,2 52374  53.2170 265.3675 0002433  32.2917 327.8224 15.08843268 31761,6917.87,95.437,541.419,538.052,0.0
52374.0,STARLINK-3762,PAYLOAD,2022-11-06 03:21:51,15.08845729,0.0002218,53.2168,263.8802,33.9563,326.1571,0.00019677,2.845e-05,0.0,0 STARLINK-3762,1 52374U 22045AV  22310.14017994  .00002845  00000-0  19677-3 0  9999,2 52374  53.2168 263.8802 0002218  33.9563 326.1571 15.08845729 31816,6917.863,95.437,541.262,538.193,0.0
52374.0,STARLINK-3762,PAYLOAD,2022-11-06 06:32:37,15.08841557,0.0002308,53.2171,263.2855,33.0678,327.0458,0.00012082,1.635e-05,0.0,0 STARLINK-3762,1 52374U 22045AV  22310.27266136  .00001635  00000-0  12082-3 0  9996,2 52374  53.2171 263.2855 0002308  33.0678 327.0458 15.08841557 31831,6917.876,95.437,541.337,538.144,0.0
52374.0,STARLINK-3762,PAYLOAD,2022-11-06 19:15:43,15.08833549,0.000217,53.2182,260.9046,40.3946,319.7207,8.812999999999998e-08,-2.87e-06,0.0,0 STARLINK-3762,1 52374U 22045AV  22310.80258788 -.00000287  00000-0  88130-7 0  9993,2 52374  53.2182 260.9046 0002170  40.3946 319.7207 15.08833549 31916,6917.9,95.438,541.266,538.264,0.0
